STARLINK-1647
1 17978C 21024B   21326.10920401  .00008112  00000-0  54349-3 0  3269
2 17978  53.0512 178.2568 0002009  73.8917 140.8869 15.06392854    16
